{
  "norad_id": 59154,
  "name": "STARLINK-31270",
  "history": [
    {
      "epoch": "2026-03-28T18:37:49.551744Z",
      "apogee_km": 483.6738349101706,
      "perigee_km": 482.4373107846923,
      "latitude_deg": 9.88578352711376e-06,
      "longitude_deg": -106.32611555106462,
      "height_km": 482.5998854148735,
      "semi_major_axis_km": 6861.192572847432,
      "eccentricity": 9.011e-05,
      "inclination_deg": 43.0011,
      "raan_deg": 359.3222,
      "arg_perigee_deg": 292.0449,
      "mean_anomaly_deg": 68.0307,
      "mean_motion_rev_day": 15.27577837
    },
    {
      "epoch": "2026-03-29T02:28:35.806080Z",
      "apogee_km": 483.75796375631217,
      "perigee_km": 482.2704661729076,
      "latitude_deg": 3.12982226316996e-05,
      "longitude_deg": 133.81594961039022,
      "height_km": 482.760207175483,
      "semi_major_axis_km": 6861.15121496461,
      "eccentricity": 0.0001084,
      "inclination_deg": 43.0038,
      "raan_deg": 357.4792,
      "arg_perigee_deg": 272.3783,
      "mean_anomaly_deg": 87.6945,
      "mean_motion_rev_day": 15.27591649
    }
  ]
}